NORAD_CAT_ID,OBJECT_NAME,OBJECT_TYPE,EPOCH,MEAN_MOTION,ECCENTRICITY,INCLINATION,RA_OF_ASC_NODE,ARG_OF_PERICENTER,MEAN_ANOMALY,BSTAR,MEAN_MOTION_DOT,MEAN_MOTION_DDOT,TLE_LINE0,TLE_LINE1,TLE_LINE2,SEMIMAJOR_AXIS,PERIOD,APOGEE,PERIGEE,DECAYED
50156.0,STARLINK-3317,PAYLOAD,2024-05-07 09:48:04,15.08871956,0.0001224,53.2187,22.6207,92.941,267.1723,0.00064273,9.965e-05,0.0,0 STARLINK-3317,1 50156U 21125A   24128.40838307  .00009965  00000-0  64273-3 0  9992,2 50156  53.2187  22.6207 0001224  92.9410 267.1723 15.08871956135296,6917.783,95.436,540.494,538.801,0.0
50156.0,STARLINK-3317,PAYLOAD,2024-05-07 20:55:47,15.08819807,9.28e-05,53.2185,20.5395,88.1279,271.982,-0.00030891,-5.198e-05,0.0,0 STARLINK-3317,1 50156U 21125A   24128.87207501 -.00005198  00000-0 -30891-3 0  9994,2 50156  53.2185  20.5395 0000928  88.1279 271.9820 15.08819807134858,6917.942,95.439,540.449,539.165,0.0
50156.0,STARLINK-3317,PAYLOAD,2024-05-07 22:31:10,15.08822322,0.0001256,53.2187,20.2428,88.3935,271.7201,-8.4895e-05,-1.638e-05,0.0,0 STARLINK-3317,1 50156U 21125A   24128.93831671 -.00001638  00000-0 -84895-4 0  9991,2 50156  53.2187  20.2428 0001256  88.3935 271.7201 15.08822322135375,6917.934,95.439,540.668,538.931,0.0
50156.0,STARLINK-3317,PAYLOAD,2024-05-08 01:41:57,15.08827278,0.0001441,53.2177,19.6467,84.1314,275.9843,0.00043234,6.597e-05,0.0,0 STARLINK-3317,1 50156U 21125A   24129.07079867  .00006597  00000-0  43234-3 0  9996,2 50156  53.2177  19.6467 0001441  84.1314 275.9843 15.08827278134888,6917.919,95.438,540.781,538.787,0.0
50156.0,STARLINK-3317,PAYLOAD,2024-05-08 22:21:58,15.08838681,0.0001231,53.217,15.7813,102.4442,257.6688,0.000794,0.00012371,0.0,0 STARLINK-3317,1 50156U 21125A   24129.93192422  .00012371  00000-0  79400-3 0  9995,2 50156  53.2170  15.7813 0001231 102.4442 257.6688 15.08838681135522,6917.884,95.438,540.601,538.898,0.0
50156.0,STARLINK-3317,PAYLOAD,2024-05-09 09:29:40,15.08851964,0.0001134,53.2165,13.6991,94.1017,266.0105,0.00088968,0.00013904,0.0,0 STARLINK-3317,1 50156U 21125A   24130.39560204  .00013904  00000-0  88968-3 0  9996,2 50156  53.2165  13.6991 0001134  94.1017 266.0105 15.08851964135085,6917.844,95.437,540.493,538.924,0.0
50156.0,STARLINK-3317,PAYLOAD,2024-05-09 20:37:22,15.08842863,0.0001578,53.2147,11.6172,96.936,263.1811,0.00035139,5.309e-05,0.0,0 STARLINK-3317,1 50156U 21125A   24130.85928502  .00005309  00000-0  35139-3 0  9998,2 50156  53.2147  11.6172 0001578  96.9360 263.1811 15.08842863135155,6917.872,95.437,540.828,538.645,0.0
50156.0,STARLINK-3317,PAYLOAD,2024-05-09 22:12:45,15.0883822,0.00012,53.2165,11.3214,83.2576,276.8553,0.00019579,2.829e-05,0.0,0 STARLINK-3317,1 50156U 21125A   24130.92552553  .00002829  00000-0  19579-3 0  9999,2 50156  53.2165  11.3214 0001200  83.2576 276.8553 15.08838220135672,6917.886,95.438,540.581,538.921,0.0
50156.0,STARLINK-3317,PAYLOAD,2024-05-10 09:20:26,15.08861638,0.0001073,53.2175,9.2376,87.5133,272.5982,0.00060121,9.299e-05,0.0,0 STARLINK-3317,1 50156U 21125A   24131.38919656  .00009299  00000-0  60121-3 0  9998,2 50156  53.2175   9.2376 0001073  87.5133 272.5982 15.08861638135232,6917.814,95.436,540.422,538.937,0.0
50156.0,STARLINK-3317,PAYLOAD,2024-05-10 20:28:09,15.08845771,0.0001475,53.217,7.1578,86.4087,273.7074,0.00018065,2.589e-05,0.0,0 STARLINK-3317,1 50156U 21125A   24131.85288300  .00002589  00000-0  18065-3 0  9990,2 50156  53.2170   7.1578 0001475  86.4087 273.7074 15.08845771135303,6917.863,95.437,540.748,538.707,0.0
50156.0,STARLINK-3317,PAYLOAD,2024-05-10 22:03:32,15.0884578,0.0001423,53.2168,6.8607,81.477,278.6383,0.00022218,3.25e-05,0.0,0 STARLINK-3317,1 50156U 21125A   24131.91912290  .00003250  00000-0  22218-3 0  9990,2 50156  53.2168   6.8607 0001423  81.4770 278.6383 15.08845780135820,6917.863,95.437,540.712,538.743,0.0
50156.0,STARLINK-3317,PAYLOAD,2024-05-11 01:14:17,15.08871608,0.0001036,53.217,6.2654,115.7339,244.376,0.00090689,0.00014187,0.0,0 STARLINK-3317,1 50156U 21125A   24132.05159567  .00014187  00000-0  90689-3 0  9994,2 50156  53.2170   6.2654 0001036 115.7339 244.3760 15.08871608135334,6917.784,95.436,540.365,538.932,0.0
50156.0,STARLINK-3317,PAYLOAD,2024-05-11 09:11:11,15.0892341,0.0001019,53.2169,4.7797,85.1603,274.9506,0.0019161,0.00030408,0.0,0 STARLINK-3317,1 50156U 21125A   24132.38277179  .00030408  00000-0  19161-2 0  9999,2 50156  53.2169   4.7797 0001019  85.1603 274.9506 15.08923410135389,6917.625,95.432,540.195,538.786,0.0
50156.0,STARLINK-3317,PAYLOAD,2024-05-11 21:54:13,15.0893667,0.0001388,53.2173,2.3994,90.3997,269.7154,0.00078571,0.00012272,0.0,0 STARLINK-3317,1 50156U 21125A   24132.91265761  .00012272  00000-0  78571-3 0  9992,2 50156  53.2173   2.3994 0001388  90.3997 269.7154 15.08936670135978,6917.585,95.431,540.41,538.49,0.0
50156.0,STARLINK-3317,PAYLOAD,2024-05-12 01:04:59,15.08917257,0.0001365,53.2181,1.8044,104.7548,255.3596,-5.4403e-05,-1.156e-05,0.0,0 STARLINK-3317,1 50156U 21125A   24133.04513317 -.00001156  00000-0 -54403-4 0  9990,2 50156  53.2181   1.8044 0001365 104.7548 255.3596 15.08917257135481,6917.644,95.433,540.454,538.565,0.0
50156.0,STARLINK-3317,PAYLOAD,2024-05-12 21:45:02,15.08780731,0.000168,53.2175,357.9387,94.2982,265.8202,-0.0017535,-0.00028042,0.0,0 STARLINK-3317,1 50156U 21125A   24133.90628018 -.00028042  00000-0 -17535-2 0  9996,2 50156  53.2175 357.9387 0001680  94.2982 265.8202 15.08780731135614,6918.062,95.441,541.089,538.764,0.0
50156.0,STARLINK-3317,PAYLOAD,2024-05-13 15:14:20,15.08774371,0.0001255,53.2157,354.6687,92.7698,267.3437,0.00058779,9.062e-05,0.0,0 STARLINK-3317,1 50156U 21125A   24134.63495864  .00009062  00000-0  58779-3 0  9993,2 50156  53.2157 354.6687 0001255  92.7698 267.3437 15.08774371136235,6918.081,95.442,540.814,539.078,0.0
50156.0,STARLINK-3317,PAYLOAD,2024-05-14 00:46:40,15.08794066,0.0001411,53.216,352.8808,91.625,268.4903,0.00095162,0.0001487,0.0,0 STARLINK-3317,1 50156U 21125A   24135.03241081  .00014870  00000-0  95162-3 0  9998,2 50156  53.2160 352.8808 0001411  91.6250 268.4903 15.08794066135782,6918.021,95.44,540.862,538.91,0.0
50156.0,STARLINK-3317,PAYLOAD,2024-05-14 07:08:13,15.08809602,0.0001483,53.2168,351.6948,79.1384,280.9775,0.0010802,0.00016931,0.0,0 STARLINK-3317,1 50156U 21125A   24135.29737584  .00016931  00000-0  10802-2 0  9991,2 50156  53.2168 351.6948 0001483  79.1384 280.9775 15.08809602136331,6917.973,95.439,540.864,538.812,0.0
50156.0,STARLINK-3317,PAYLOAD,2024-05-14 21:26:41,15.08845726,0.0001471,53.2169,349.0172,71.2796,288.8355,0.0014687,0.00023167,0.0,0 STARLINK-3317,1 50156U 21125A   24135.89353795  .00023167  00000-0  14687-2 0  9999,2 50156  53.2169 349.0172 0001471  71.2796 288.8355 15.08845726136427,6917.863,95.437,540.746,538.71,0.0
50156.0,STARLINK-3317,PAYLOAD,2024-05-15 21:17:27,15.08876868,0.0001412,53.217,344.5563,67.0059,293.1082,0.0012056,0.00018971,0.0,0 STARLINK-3317,1 50156U 21125A   24136.88712519  .00018971  00000-0  12056-2 0  9997,2 50156  53.2170 344.5563 0001412  67.0059 293.1082 15.08876868136060,6917.768,95.435,540.609,538.656,0.0
50156.0,STARLINK-3317,PAYLOAD,2024-05-16 06:49:45,15.0890603,0.0001351,53.2172,342.7728,77.7841,282.3302,0.0017244,0.00027312,0.0,0 STARLINK-3317,1 50156U 21125A   24137.28454933  .00027312  00000-0  17244-2 0  9998,2 50156  53.2172 342.7728 0001351  77.7841 282.3302 15.08906030136121,6917.679,95.433,540.478,538.609,0.0
50156.0,STARLINK-3317,PAYLOAD,2024-05-17 13:02:06,15.0884029,0.0001663,53.2146,337.1234,96.8712,263.247,0.0013808,0.00021756,0.0,0 STARLINK-3317,1 50156U 21125A   24138.54313205  .00021756  00000-0  13808-2 0  9992,2 50156  53.2146 337.1234 0001663  96.8712 263.2470 15.08840290136317,6917.88,95.438,540.895,538.594,0.0
50156.0,STARLINK-3317,PAYLOAD,2024-05-17 19:23:39,15.08827429,0.0001672,53.2152,335.9326,93.0254,267.093,0.00070009,0.00010868,0.0,0 STARLINK-3317,1 50156U 21125A   24138.80809588  .00010868  00000-0  70009-3 0  9994,2 50156  53.2152 335.9326 0001672  93.0254 267.0930 15.08827429136358,6917.919,95.438,540.94,538.627,0.0
50156.0,STARLINK-3317,PAYLOAD,2024-05-18 12:52:53,15.08849359,0.0002068,53.2176,332.6632,91.8122,268.3107,0.00078591,0.00012245,0.0,0 STARLINK-3317,1 50156U 21125A   24139.53673485  .00012245  00000-0  78591-3 0  9995,2 50156  53.2176 332.6632 0002068  91.8122 268.3107 15.08849359136972,6917.852,95.437,541.147,538.286,0.0
50156.0,STARLINK-3317,PAYLOAD,2024-05-18 19:14:26,15.08860212,0.0001631,53.2166,331.4739,96.3027,263.8151,0.00091881,0.00014373,0.0,0 STARLINK-3317,1 50156U 21125A   24139.80168997  .00014373  00000-0  91881-3 0  9993,2 50156  53.2166 331.4739 0001631  96.3027 263.8151 15.08860212136504,6917.819,95.436,540.812,538.555,0.0
50156.0,STARLINK-3317,PAYLOAD,2024-05-19 12:43:38,15.08872536,0.0001321,53.217,328.2032,98.3715,261.7427,0.00029648,4.438e-05,0.0,0 STARLINK-3317,1 50156U 21125A   24140.53031104  .00004438  00000-0  29648-3 0  9997,2 50156  53.2170 328.2032 0001321  98.3715 261.7427 15.08872536137125,6917.781,95.435,540.56,538.732,0.0
50156.0,STARLINK-3317,PAYLOAD,2024-05-19 19:05:12,15.0883373,0.0001465,53.2169,327.013,88.9251,271.1909,-0.0011165,-0.0001801,0.0,0 STARLINK-3317,1 50156U 21125A   24140.79527785 -.00018010  00000-0 -11165-2 0  9997,2 50156  53.2169 327.0130 0001465  88.9251 271.1909 15.08833730136658,6917.9,95.438,540.778,538.751,0.0
50156.0,STARLINK-3317,PAYLOAD,2024-05-19 22:15:58,15.08830538,0.0001458,53.2171,326.4168,96.6678,263.448,-0.001037,-0.0001675,0.0,0 STARLINK-3317,1 50156U 21125A   24140.92775891 -.00016750  00000-0 -10370-2 0  9991,2 50156  53.2171 326.4168 0001458  96.6678 263.4480 15.08830538137186,6917.909,95.438,540.783,538.766,0.0
50156.0,STARLINK-3317,PAYLOAD,2024-05-20 17:20:37,15.08824113,0.0001298,53.2166,322.8506,92.3226,267.7915,0.00072632,0.00011285,0.0,0 STARLINK-3317,1 50156U 21125A   24141.72265294  .00011285  00000-0  72632-3 0  9997,2 50156  53.2166 322.8506 0001298  92.3226 267.7915 15.08824113136798,6917.929,95.439,540.692,538.896,0.0
